STARLINK-3868           
1 52649U 22052BD  25280.14994592  .00001197  00000+0  93310-4 0  9994
2 52649  53.2173 228.2396 0001339  92.8080 267.3066 15.08836391187969
STARLINK-3891           
1 52650U 22052BE  25280.84642042  .00001676  00000+0  12340-3 0  9998
2 52650  53.2168 215.3611 0001501  86.4476 273.6687 15.08834729188201
STARLINK-4004           
1 52656U 22053A   25280.54514078  .00000741  00000+0  64637-4 0  9998
2 52656  53.2162 121.6235 0001474 102.2025 257.9132 15.08841601187990
STARLINK-4084           
1 52657U 22053B   25280.84693816  .00001123  00000+0  88627-4 0  9990
2 52657  53.2146 120.5746 0001586  92.1325 267.9849 15.08842172188331
STARLINK-4082           
1 52658U 22053C   25280.54786414  .00001644  00000+0  12137-3 0  9995
2 52658  53.2158 121.5996 0001611  89.1201 270.9976 15.08841900188110
STARLINK-3960           
1 52659U 22053D   25280.54417763  .00001333  00000+0  10183-3 0  9998
2 52659  53.2161 121.5698 0001190  92.1695 267.9434 15.08838914188102
STARLINK-4081           
1 52660U 22053E   25279.94434757  .00000580  00000+0  54505-4 0  9994
2 52660  53.2162 124.3107 0001425  90.9178 269.1977 15.08839899187900
STARLINK-4042           
1 52661U 22053F   25280.53684084  .00001068  00000+0  85218-4 0  9999
2 52661  53.2158 121.6492 0000924  99.0268 261.0829 15.08813519187926
STARLINK-4044           
1 52662U 22053G   25280.86066560 -.00001758  00000+0 -92366-4 0  9999
2 52662  53.2208 120.1957 0001401  87.1657 272.9496 15.08845950187974
STARLINK-4037           
1 52663U 22053H   25280.85697924  .00000937  00000+0  76968-4 0  9999
2 52663  53.2153 120.2133 0001465  88.2715 271.8445 15.08840081187970
STARLINK-4070           
1 52664U 22053J   25280.53314328  .00002721  00000+0  18896-3 0  9997
2 52664  53.2152 121.6680 0001346  93.2458 266.8688 15.08842859187923
STARLINK-4064           
1 52665U 22053K   25280.84594406  .00001236  00000+0  95727-4 0  9998
2 52665  53.2160 120.2617 0001716  91.5314 268.5875 15.08838422187974
STARLINK-4079           
1 52666U 22053L   25280.55150149 -.00000057  00000+0  14497-4 0  9995
2 52666  53.2142 121.1990 0001732  87.4514 272.6677 15.08839355187931
STARLINK-4076           
1 52667U 22053M   25280.84225851  .00000471  00000+0  47670-4 0  9999
2 52667  53.2156 120.2792 0001514  88.8116 271.3050 15.08843464187979
STARLINK-4067           
1 52668U 22053N   25280.84961687  .00000481  00000+0  48296-4 0  9990
2 52668  53.2150 120.2449 0001486  86.2810 273.8352 15.08844034187970
STARLINK-3972           
1 52669U 22053P   25280.56626117  .00000367  00000+0  41141-4 0  9991
2 52669  53.2137 121.5171 0001539  91.4105 268.7063 15.08852286187921
STARLINK-4075           
1 52670U 22053Q   25280.85331125  .00000034  00000+0  20223-4 0  9996
2 52670  53.2160 120.2974 0001446  91.1765 268.9393 15.08837223187979
STARLINK-4071           
1 52671U 22053R   25280.56258098  .00001457  00000+0  10962-3 0  9990
2 52671  53.2167 121.5372 0001387  88.5656 271.5495 15.08842893187923
STARLINK-4073           
1 52672U 22053S   25280.83859147 -.00000583  00000+0 -18576-4 0  9994
2 52672  53.2156 120.2961 0001289  92.5092 267.6047 15.08834038187967
STARLINK-3976           
1 52673U 22053T   25280.55520869 -.00002060  00000+0 -11141-3 0  9992
2 52673  53.2145 121.5678 0001261  94.9407 265.1729 15.08838947187920
STARLINK-3936           
1 52674U 22053U   25280.56992186  .00002782  00000+0  19274-3 0  9993
2 52674  53.2148 121.5011 0001422  94.3569 265.7585 15.08856816187939
STARLINK-3934           
1 52675U 22053V   25280.55247547  .00000444  00000+0  46000-4 0  9998
2 52675  53.2143 111.5818 0001311  73.3294 286.7841 15.08831466188054
STARLINK-4006           
1 52676U 22053W   25280.29394426  .00000527  00000+0  51211-4 0  9991
2 52676  53.2185 122.7418 0001197  88.5668 271.5462 15.08840682187887
STARLINK-4074           
1 52678U 22053Y   25280.56352235  .00000971  00000+0  79058-4 0  9997
2 52678  53.2155 111.6359 0001164  79.5347 280.5776 15.08840013188051
STARLINK-4031           
1 52679U 22053Z   25280.53406838  .00001229  00000+0  95264-4 0  9998
2 52679  53.2143 111.6619 0001193  86.8631 273.2498 15.08844260188011
STARLINK-3774           
1 52680U 22053AA  25280.52667354  .00000276  00000+0  35416-4 0  9995
2 52680  53.2150 111.4640 0001398  90.4563 269.6590 15.08840332188035
STARLINK-4068           
1 52681U 22053AB  25280.53038459  .00000212  00000+0  31406-4 0  9990
2 52681  53.2153 111.6785 0001359  89.6697 270.4451 15.08839337188013
STARLINK-4017           
1 52682U 22053AC  25280.27646008 -.00000008  00000+0  17606-4 0  9997
2 52682  53.2162 112.8202 0001374  90.0133 270.1016 15.08838844187991
STARLINK-4014           
1 52684U 22053AE  25280.27278513  .00001734  00000+0  12699-3 0  9993
2 52684  53.2160 112.8367 0001222  92.4096 267.7036 15.08846589187976
STARLINK-4029           
1 52685U 22053AF  25280.25070577  .00000708  00000+0  62551-4 0  9995
2 52685  53.2181 112.9366 0001397  90.9621 269.1532 15.08838909187952
STARLINK-4005           
1 52686U 22053AG  25280.55346610 -.00003220  00000+0 -18423-3 0  9995
2 52686  53.2155 111.8559 0001505  84.0196 276.0968 15.08848192188000
STARLINK-3981           
1 52687U 22053AH  25280.51198224 -.00007822  00000+0 -47362-3 0  9994
2 52687  53.2187 111.7615 0001830  74.8034 285.3161 15.08858074187992
STARLINK-4032           
1 52688U 22053AJ  25280.04465035  .00007453  00000+0  48714-3 0  9990
2 52688  53.2181 113.7439 0001176  64.4983 295.6131 15.08740971187924
STARLINK-4078           
1 52689U 22053AK  25280.46578283  .00036716  00000+0  10462-2 0  9999
2 52689  53.2179  89.2573 0001734 136.5120 223.6021 15.35763317188347
STARLINK-4035           
1 52690U 22053AL  25280.51934088 -.00000938  00000+0 -40877-4 0  9990
2 52690  53.2169 111.7298 0001277  93.7376 266.3762 15.08825626187990
STARLINK-3993           
1 52692U 22053AN  25279.88629171 -.00042631  00000+0 -26636-2 0  9995
2 52692  53.2154 114.3001 0001364 144.9946 215.1136 15.09015531187934
STARLINK-3946           
1 52693U 22053AP  25280.55611728  .00002015  00000+0  14457-3 0  9990
2 52693  53.2162 111.5640 0001320  84.7283 275.3860 15.08858290188039
STARLINK-4072           
1 52694U 22053AQ  25280.83582113  .00000114  00000+0  25229-4 0  9995
2 52694  53.2162 110.3073 0001397  89.6092 270.5060 15.08840120188079
STARLINK-4041           
1 52695U 22053AR  25279.94657404  .00010345  00000+0  66637-3 0  9996
2 52695  53.2196 119.0972 0000190   1.0400 359.0592 15.08878897187885
STARLINK-4018           
1 52697U 22053AT  25280.83448573  .00004050  00000+0  27229-3 0  9993
2 52697  53.2146 115.3141 0001009  90.9013 269.2095 15.08851332188017
STARLINK-4030           
1 52698U 22053AU  25280.84456235  .00000854  00000+0  71738-4 0  9992
2 52698  53.2152 115.2569 0001354  90.5089 269.6058 15.08836938188007
STARLINK-3987           
1 52699U 22053AV  25280.22725362  .00001439  00000+0  10846-3 0  9997
2 52699  53.2148 108.0677 0001241  78.9829 281.1303 15.08844691188074
STARLINK-4034           
1 52700U 22053AW  25280.27412224 -.00000085  00000+0  12748-4 0  9996
2 52700  53.2149 117.4731 0001827  85.5925 274.5276 15.08836955187937
STARLINK-4033           
1 52702U 22053AY  25279.97240500  .00001099  00000+0  87150-4 0  9993
2 52702  53.2110 119.2121 0002014  91.3561 268.7662 15.08843438187882
STARLINK-4020           
1 52703U 22053AZ  25280.52762708  .00001525  00000+0  11388-3 0  9999
2 52703  53.2161 101.7061 0001536  87.2520 272.8648 15.08847675186915
STARLINK-3999           
1 52704U 22053BA  25280.21114536  .00000776  00000+0  66842-4 0  9999
2 52704  53.2160 103.1115 0001447  89.8915 270.2243 15.08837890188146
STARLINK-3844           
1 52705U 22053BB  25280.53130245 -.00000172  00000+0  72831-5 0  9997
2 52705  53.2152 101.6737 0001238  88.2054 271.9080 15.08838081188191
STARLINK-3970           
1 52706U 22053BC  25280.46874165  .00000518  00000+0  50602-4 0  9990
2 52706  53.2164 101.9555 0001300  92.5346 267.5795 15.08838650188183
STARLINK-4007           
1 52707U 22053BD  25280.24792537  .00000912  00000+0  75353-4 0  9997
2 52707  53.2152 102.8311 0001428  88.2134 271.9021 15.08841661188210
STARLINK-3962           
1 52708U 22053BE  25280.82201757  .00000367  00000+0  41136-4 0  9997
2 52708  53.2164 100.3600 0001310  85.7715 274.3427 15.08842166188448
STARLINK-4091           
1 52830U 22062A   25280.56995884  .00000803  00000+0  68497-4 0  9999
2 52830  53.2182   1.6937 0001335  89.0660 271.0485 15.08847815182665
STARLINK-4089           
1 52831U 22062B   25280.56257693 -.00000087  00000+0  12632-4 0  9994
2 52831  53.2180   1.5391 0001268  75.1759 284.9373 15.08837822182663
STARLINK-4083           
1 52832U 22062C   25280.55887350  .00004620  00000+0  30787-3 0  9999
2 52832  53.2179   1.5518 0001756  94.9054 265.2138 15.08878503182664
STARLINK-4086           
1 52833U 22062D   25280.55522235  .00001142  00000+0  89789-4 0  9991
2 52833  53.2174   1.5688 0001400  89.8323 270.2830 15.08845435182669
STARLINK-4108           
1 52834U 22062E   25280.61409689  .00002332  00000+0  16456-3 0  9998
2 52834  53.2200   1.3053 0001592  97.5578 262.5595 15.08843998182679
STARLINK-4080           
1 52835U 22062F   25280.61041727  .00000814  00000+0  69226-4 0  9991
2 52835  53.2186   1.3249 0001788  92.5888 267.5309 15.08850111182679
STARLINK-4043           
1 52836U 22062G   25280.57093492  .00003111  00000+0  21350-3 0  9991
2 52836  53.2186   1.8154 0001285  88.7926 271.3213 15.08835858182669
STARLINK-4036           
1 52837U 22062H   25280.53313935  .00000265  00000+0  34727-4 0  9995
2 52837  53.2183   1.6694 0001297  96.7868 263.3272 15.08847051182665
STARLINK-4092           
1 52838U 22062J   25280.60305405  .00001401  00000+0  10608-3 0  9991
2 52838  53.2184   1.3436 0001321  90.8292 269.2851 15.08847878182678
